[{"OBJECT_NAME":"FALCONSAT-10","OBJECT_ID":"2023-174AM","EPOCH":"2026-03-09T16:51:34.085376","MEAN_MOTION":15.26670596,"ECCENTRICITY":0.00089318,"INCLINATION":97.3865,"RA_OF_ASC_NODE":145.7938,"ARG_OF_PERICENTER":169.5942,"MEAN_ANOMALY":190.5483,"EPHEMERIS_TYPE":0,"CLASSIFICATION_TYPE":"U","NORAD_CAT_ID":58291,"ELEMENT_SET_NO":999,"REV_AT_EPOCH":12958,"BSTAR":0.00025968794,"MEAN_MOTION_DOT":6.748e-5,"MEAN_MOTION_DDOT":0},{"OBJECT_NAME":"STARLINK-35617","OBJECT_ID":"2025-259A","EPOCH":"2026-03-09T21:59:43.846080","MEAN_MOTION":15.27597426,"ECCENTRICITY":0.00014513,"INCLINATION":42.9975,"RA_OF_ASC_NODE":273.2752,"ARG_OF_PERICENTER":358.983,"MEAN_ANOMALY":1.1019,"EPHEMERIS_TYPE":0,"CLASSIFICATION_TYPE":"U","NORAD_CAT_ID":66422,"ELEMENT_SET_NO":999,"REV_AT_EPOCH":1952,"BSTAR":0.0014261737,"MEAN_MOTION_DOT":0.00039213,"MEAN_MOTION_DDOT":0}]
